OBJECT_NAME,OBJECT_ID,EPOCH,MEAN_MOTION,ECCENTRICITY,INCLINATION,RA_OF_ASC_NODE,ARG_OF_PERICENTER,MEAN_ANOMALY,EPHEMERIS_TYPE,CLASSIFICATION_TYPE,NORAD_CAT_ID,ELEMENT_SET_NO,REV_AT_EPOCH,BSTAR,MEAN_MOTION_DOT,MEAN_MOTION_DDOT
STARS-X,2026-132A,2026-07-12T01:15:57.155040,14.99104778,.0014256,97.6886,256.3979,175.9182,184.2160,0,U,69502,999,450,.10643E-3,.1236E-4,0
PETREL,2026-132B,2026-07-12T01:13:29.745408,14.99182309,.0014144,97.6914,256.4116,177.7570,182.3719,0,U,69503,999,450,.87421E-4,.1007E-4,0
BRO-22,2026-132C,2026-07-11T23:19:31.385856,14.99799758,.001621,97.6832,256.3344,192.4467,167.6358,0,U,69504,999,449,.55871E-4,.633E-5,0
HORN-L,2026-132D,2026-07-10T14:22:11.626752,15.11180435,.00288531,97.6828,255.1999,224.9163,134.9732,0,U,69505,999,430,.16993246E-3,.2811E-4,0
VERTECS,2026-132E,2026-07-12T03:34:33.791808,15.00985096,.0015471,97.6825,256.5726,217.0754,142.9402,0,U,69506,999,451,.87445E-4,.1058E-4,0
HORN-R,2026-132F,2026-07-12T00:52:05.423232,15.05776636,.0018099,97.6866,256.5489,216.9812,143.0168,0,U,69507,999,450,.40121E-4,.519E-5,0
STARLINK-37536,2026-133A,2026-07-11T10:47:49.321824,15.49325262,.00008629,53.1576,202.7623,72.4560,287.6543,0,U,69508,999,457,.55766626E-3,.30706E-3,0
STARLINK-37341,2026-133B,2026-07-11T10:50:29.190336,15.49336557,.00009937,53.1590,202.7751,56.6800,303.4304,0,U,69509,999,458,.81801304E-3,.45355E-3,0
STARLINK-36536,2026-133C,2026-07-12T04:00:01.998720,15.35404485,.0001298,53.1590,198.7723,76.7348,239.7269,0,U,69510,999,593,-.38842E-3,-.13906E-3,0
STARLINK-37420,2026-133D,2026-07-12T04:00:01.998720,15.33578395,.0001385,53.1592,198.5121,100.8895,343.8974,0,U,69511,999,588,-.12997E-2,-.42914E-3,0
STARLINK-37511,2026-133E,2026-07-12T04:00:01.998720,15.33551556,.0001176,53.1595,198.5729,97.0202,317.0866,0,U,69512,999,588,-.50603E-3,-.16979E-3,0
STARLINK-37552,2026-133F,2026-07-11T01:32:18.909600,15.49325269,.00018574,53.1587,204.6185,69.2199,290.9009,0,U,69513,999,578,.53501071E-3,.29436E-3,0
STARLINK-37607,2026-133G,2026-07-12T04:00:01.998720,15.35399913,.000154,53.1595,198.6642,113.5923,254.0512,0,U,69514,999,588,-.46045E-3,-.16407E-3,0
STARLINK-37232,2026-133H,2026-07-12T00:10:02.391168,15.49307908,.000391,53.1450,199.8209,95.7649,264.3806,0,U,69515,999,466,.53581E-3,.29468E-3,0
STARLINK-37323,2026-133J,2026-07-12T04:00:01.998720,15.33519605,.0001862,53.1596,198.3915,116.1238,26.2998,0,U,69516,999,588,-.42457E-3,-.14297E-3,0
STARLINK-37357,2026-133K,2026-07-12T00:44:39.398784,15.49337398,.0001316,53.1600,199.9841,90.7107,269.4053,0,U,69517,999,592,.77205E-3,.42768E-3,0
STARLINK-37408,2026-133L,2026-07-11T12:20:23.673696,15.48863350,.00009033,53.1597,201.7144,166.7623,193.3410,0,U,69518,999,586,-.67415928E-2,-.353335E-2,0
STARLINK-37570,2026-133M,2026-07-11T08:44:55.703040,15.49338344,.0000754,53.1605,202.9265,48.0204,312.0869,0,U,69519,999,583,.81938712E-3,.45435E-3,0
STARLINK-37510,2026-133N,2026-07-12T00:07:08.886144,15.49338903,.000213,53.1543,199.8108,91.9583,268.1670,0,U,69520,999,593,.5451E-3,.30017E-3,0
STARLINK-37586,2026-133P,2026-07-12T04:00:01.998720,15.33533994,.0001406,53.1598,198.3366,106.2027,60.0558,0,U,69521,999,588,-.38888E-3,-.13134E-3,0
STARLINK-37379,2026-133Q,2026-07-12T01:00:48.868992,15.49338914,.0002703,53.1549,199.3209,108.4148,251.7155,0,U,69522,999,594,.55112E-3,.30356E-3,0
STARLINK-37429,2026-133R,2026-07-10T12:45:17.599680,15.49342375,.0001182,53.1595,206.9677,74.4967,285.6173,0,U,69523,999,570,.10132E-2,.56376E-3,0
STARLINK-37352,2026-133S,2026-07-11T23:25:55.693056,15.49338075,.0002828,53.1546,199.6250,69.0086,291.1225,0,U,69524,999,593,.66492E-3,.36747E-3,0
STARLINK-37490,2026-133T,2026-07-12T04:00:01.998720,15.37591669,.0002018,53.1588,198.3355,63.0436,103.1009,0,U,69525,999,593,-.8642E-1,-.2867207E-1,0
STARLINK-37438,2026-133U,2026-07-11T23:46:07.972320,15.49335936,.0000938,53.1590,199.7119,102.1197,257.9917,0,U,69526,999,593,.67234E-3,.37158E-3,0
STARLINK-37484,2026-133V,2026-07-12T04:00:01.998720,15.35403142,.0001177,53.1595,198.3240,55.2488,116.3106,0,U,69527,999,593,-.41788E-3,-.14929E-3,0
STARLINK-37523,2026-133W,2026-07-12T00:54:49.309344,15.49366685,.0002077,53.1544,199.2900,101.6729,258.4513,0,U,69528,999,594,.66965E-3,.37048E-3,0
STARLINK-37369,2026-133X,2026-07-11T00:03:29.812032,15.49328692,.00010774,53.1589,204.2045,86.3007,273.8125,0,U,69529,999,578,.83235371E-3,.4615E-3,0
STARLINK-37670,2026-133Y,2026-07-12T01:11:19.777344,15.49335434,.0001298,53.1602,199.3671,99.7548,260.3608,0,U,69530,999,594,.64784E-3,.35781E-3,0
STARLINK-37897,2026-133Z,2026-07-12T04:00:01.998720,15.39925529,.0001159,53.1590,198.2090,107.5305,118.7941,0,U,69531,999,589,-.83781E-1,-.2985588E-1,0
